{
  "type": "FeatureCollection",
  "features": [
    {
      "type": "Feature",
      "properties": {
        "norad_id": 35585,
        "name": "COSMOS 2251 DEB",
        "group": "cosmos-2251-debris",
        "lat": 72.92888307026483,
        "lon": 74.9903058601527,
        "alt_km": 1193.089363742375,
        "timestamp": "2025-12-02T10:50:47.672061+00:00",
        "meta_object_name": "COSMOS 2251 DEB",
        "meta_object_id": "1993-036AMC",
        "meta_epoch": "2025-11-29T13:23:02.410656",
        "meta_mean_motion": 13.75184641,
        "meta_eccentricity": 0.03105919,
        "meta_inclination": 73.972,
        "meta_ra_of_asc_node": 10.4214,
        "meta_arg_of_pericenter": 285.2591,
        "meta_mean_anomaly": 234.6318,
        "meta_ephemeris_type": 0,
        "meta_classification_type": "U",
        "meta_norad_cat_id": 35585,
        "meta_element_set_no": 999,
        "meta_rev_at_epoch": 63882,
        "meta_bstar": 0.0011222766,
        "meta_mean_motion_dot": 1.502e-05,
        "meta_mean_motion_ddot": 0,
        "tle_line1": "1 35585U 93036AMC 25333.55766679  .00001502  00000+0  11223-2 0  9992",
        "tle_line2": "2 35585  73.9720  10.4214 0310591 285.2591 234.6318 13.75184641638823"
      },
      "geometry": {
        "type": "Point",
        "coordinates": [
          74.9903058601527,
          72.92888307026483
        ]
      }
    },
    {
      "type": "Feature",
      "properties": {
        "norad_id": 35586,
        "name": "COSMOS 2251 DEB",
        "group": "cosmos-2251-debris",
        "lat": 43.56259291270141,
        "lon": -25.226102472864063,
        "alt_km": 1320.30129577578,
        "timestamp": "2025-12-02T10:50:47.672072+00:00",
        "meta_object_name": "COSMOS 2251 DEB",
        "meta_object_id": "1993-036AMD",
        "meta_epoch": "2025-11-30T16:52:48.213120",
        "meta_mean_motion": 13.52072818,
        "meta_eccentricity": 0.04052263,
        "meta_inclination": 74.0205,
        "meta_ra_of_asc_node": 321.7609,
        "meta_arg_of_pericenter": 199.6217,
        "meta_mean_anomaly": 340.481,
        "meta_ephemeris_type": 0,
        "meta_classification_type": "U",
        "meta_norad_cat_id": 35586,
        "meta_element_set_no": 999,
        "meta_rev_at_epoch": 60219,
        "meta_bstar": 0.00040711043,
        "meta_mean_motion_dot": 4.27e-06,
        "meta_mean_motion_ddot": 0,
        "tle_line1": "1 35586U 93036AMD 25334.70333580  .00000427  00000+0  40711-3 0  9992",
        "tle_line2": "2 35586  74.0205 321.7609 0405226 199.6217 340.4810 13.52072818602194"
      },
      "geometry": {
        "type": "Point",
        "coordinates": [
          -25.226102472864063,
          43.56259291270141
        ]
      }
    },
    {
      "type": "Feature",
      "properties": {
        "norad_id": 35587,
        "name": "COSMOS 2251 DEB",
        "group": "cosmos-2251-debris",
        "lat": 2.8161592132297115,
        "lon": -102.347721311588,
        "alt_km": 659.7154351937379,
        "timestamp": "2025-12-02T10:50:47.672082+00:00",
        "meta_object_name": "COSMOS 2251 DEB",
        "meta_object_id": "1993-036AME",
        "meta_epoch": "2025-12-02T00:14:38.667264",
        "meta_mean_motion": 14.71451769,
        "meta_eccentricity": 0.0102776,
        "meta_inclination": 74.0046,
        "meta_ra_of_asc_node": 79.3207,
        "meta_arg_of_pericenter": 269.3108,
        "meta_mean_anomaly": 89.6286,
        "meta_ephemeris_type": 0,
        "meta_classification_type": "U",
        "meta_norad_cat_id": 35587,
        "meta_element_set_no": 999,
        "meta_rev_at_epoch": 66188,
        "meta_bstar": 0.00036359,
        "meta_mean_motion_dot": 2.411e-05,
        "meta_mean_motion_ddot": 0,
        "tle_line1": "1 35587U 93036AME 25336.01016976  .00002411  00000+0  36359-3 0  9994",
        "tle_line2": "2 35587  74.0046  79.3207 0102776 269.3108  89.6286 14.71451769661884"
      },
      "geometry": {
        "type": "Point",
        "coordinates": [
          -102.347721311588,
          2.8161592132297115
        ]
      }
    },
    {
      "type": "Feature",
      "properties": {
        "norad_id": 35593,
        "name": "COSMOS 2251 DEB",
        "group": "cosmos-2251-debris",
        "lat": -27.357005869635092,
        "lon": 135.45721705411063,
        "alt_km": 834.0915092478181,
        "timestamp": "2025-12-02T10:50:47.672093+00:00",
        "meta_object_name": "COSMOS 2251 DEB",
        "meta_object_id": "1993-036AML",
        "meta_epoch": "2025-12-01T15:20:07.352736",
        "meta_mean_motion": 14.25489853,
        "meta_eccentricity": 0.01053249,
        "meta_inclination": 74.0863,
        "meta_ra_of_asc_node": 308.4309,
        "meta_arg_of_pericenter": 317.4816,
        "meta_mean_anomaly": 41.8208,
        "meta_ephemeris_type": 0,
        "meta_classification_type": "U",
        "meta_norad_cat_id": 35593,
        "meta_element_set_no": 999,
        "meta_rev_at_epoch": 84907,
        "meta_bstar": 0.0013867692,
        "meta_mean_motion_dot": 3.448e-05,
        "meta_mean_motion_ddot": 0,
        "tle_line1": "1 35593U 93036AML 25335.63897399  .00003448  00000+0  13868-2 0  9994",
        "tle_line2": "2 35593  74.0863 308.4309 0105324 317.4816  41.8208 14.25489853849077"
      },
      "geometry": {
        "type": "Point",
        "coordinates": [
          135.45721705411063,
          -27.357005869635092
        ]
      }
    },
    {
      "type": "Feature",
      "properties": {
        "norad_id": 35594,
        "name": "COSMOS 2251 DEB",
        "group": "cosmos-2251-debris",
        "lat": 12.898446149737818,
        "lon": 131.15100613098764,
        "alt_km": 622.4312318931361,
        "timestamp": "2025-12-02T10:50:47.672104+00:00",
        "meta_object_name": "COSMOS 2251 DEB",
        "meta_object_id": "1993-036AMM",
        "meta_epoch": "2025-12-01T02:30:04.449024",
        "meta_mean_motion": 14.8736155,
        "meta_eccentricity": 0.00313469,
        "meta_inclination": 73.8065,
        "meta_ra_of_asc_node": 130.0573,
        "meta_arg_of_pericenter": 241.1394,
        "meta_mean_anomaly": 118.6638,
        "meta_ephemeris_type": 0,
        "meta_classification_type": "U",
        "meta_norad_cat_id": 35594,
        "meta_element_set_no": 999,
        "meta_rev_at_epoch": 88012,
        "meta_bstar": 0.00176297,
        "meta_mean_motion_dot": 0.00016075,
        "meta_mean_motion_ddot": 0,
        "tle_line1": "1 35594U 93036AMM 25335.10421816  .00016075  00000+0  17630-2 0  9995",
        "tle_line2": "2 35594  73.8065 130.0573 0031346 241.1394 118.6638 14.87361550880129"
      },
      "geometry": {
        "type": "Point",
        "coordinates": [
          131.15100613098764,
          12.898446149737818
        ]
      }
    },
    {
      "type": "Feature",
      "properties": {
        "norad_id": 35602,
        "name": "COSMOS 2251 DEB",
        "group": "cosmos-2251-debris",
        "lat": 0.8295857158741379,
        "lon": 24.091107836193235,
        "alt_km": 468.03395984547933,
        "timestamp": "2025-12-02T10:50:47.672114+00:00",
        "meta_object_name": "COSMOS 2251 DEB",
        "meta_object_id": "1993-036AMV",
        "meta_epoch": "2025-12-01T21:35:19.253760",
        "meta_mean_motion": 15.34525141,
        "meta_eccentricity": 0.0091102,
        "meta_inclination": 73.9956,
        "meta_ra_of_asc_node": 205.5157,
        "meta_arg_of_pericenter": 273.7711,
        "meta_mean_anomaly": 95.9175,
        "meta_ephemeris_type": 0,
        "meta_classification_type": "U",
        "meta_norad_cat_id": 35602,
        "meta_element_set_no": 999,
        "meta_rev_at_epoch": 89925,
        "meta_bstar": 0.00051314,
        "meta_mean_motion_dot": 0.00019659,
        "meta_mean_motion_ddot": 0,
        "tle_line1": "1 35602U 93036AMV 25335.89952840  .00019659  00000+0  51314-3 0  9996",
        "tle_line2": "2 35602  73.9956 205.5157 0091102 273.7711  95.9175 15.34525141899253"
      },
      "geometry": {
        "type": "Point",
        "coordinates": [
          24.091107836193235,
          0.8295857158741379
        ]
      }
    },
    {
      "type": "Feature",
      "properties": {
        "norad_id": 35605,
        "name": "COSMOS 2251 DEB",
        "group": "cosmos-2251-debris",
        "lat": 0.22259315938949467,
        "lon": -1.145980693695382,
        "alt_km": 472.7595633343244,
        "timestamp": "2025-12-02T10:50:47.672124+00:00",
        "meta_object_name": "COSMOS 2251 DEB",
        "meta_object_id": "1993-036AMY",
        "meta_epoch": "2025-11-25T09:05:01.395168",
        "meta_mean_motion": 15.26251894,
        "meta_eccentricity": 0.00343964,
        "meta_inclination": 73.8732,
        "meta_ra_of_asc_node": 13.9291,
        "meta_arg_of_pericenter": 311.4103,
        "meta_mean_anomaly": 48.4141,
        "meta_ephemeris_type": 0,
        "meta_classification_type": "U",
        "meta_norad_cat_id": 35605,
        "meta_element_set_no": 999,
        "meta_rev_at_epoch": 65706,
        "meta_bstar": 0.0065174874,
        "meta_mean_motion_dot": 0.00175767,
        "meta_mean_motion_ddot": 0,
        "tle_line1": "1 35605U 93036AMY 25329.37848837  .00175767  00000+0  65175-2 0  9997",
        "tle_line2": "2 35605  73.8732  13.9291 0034396 311.4103  48.4141 15.26251894657063"
      },
      "geometry": {
        "type": "Point",
        "coordinates": [
          -1.145980693695382,
          0.22259315938949467
        ]
      }
    }
  ]
}